NORAD_CAT_ID,OBJECT_NAME,OBJECT_TYPE,EPOCH,MEAN_MOTION,ECCENTRICITY,INCLINATION,RA_OF_ASC_NODE,ARG_OF_PERICENTER,MEAN_ANOMALY,BSTAR,MEAN_MOTION_DOT,MEAN_MOTION_DDOT,TLE_LINE0,TLE_LINE1,TLE_LINE2,SEMIMAJOR_AXIS,PERIOD,APOGEE,PERIGEE,DECAYED
56773.0,STARLINK-6296,PAYLOAD,2024-01-26 00:00:00,15.59582569,0.0003384,69.9996,99.4227,274.4116,307.9759,-0.011937,-0.00870891,0.0,0 STARLINK-6296,1 56773U 23078G   24026.00001157 -.00870891  00000-0 -11937-1 0  9993,2 56773  69.9996  99.4227 0003384 274.4116 307.9759 15.59582569  6027,6767.001,92.332,391.156,386.576,0.0
56773.0,STARLINK-6296,PAYLOAD,2024-01-26 06:00:00,15.59138617,0.0003314,69.9997,98.731,272.4485,272.9206,-0.012955,-0.0092404,0.0,0 STARLINK-6296,1 56773U 23078G   24026.25001157 -.00924040  00000-0 -12955-1 0  9997,2 56773  69.9997  98.7310 0003314 272.4485 272.9206 15.59138617 37969,6768.286,92.359,392.394,387.908,0.0
56773.0,STARLINK-6296,PAYLOAD,2024-01-26 14:00:01,15.58454035,0.0003407,69.9994,97.8091,276.389,338.9824,-0.012656,-0.00883385,0.0,0 STARLINK-6296,1 56773U 23078G   24026.58334491 -.00883385  00000-0 -12656-1 0  9997,2 56773  69.9994  97.8091 0003407 276.3890 338.9824 15.58454035  5922,6770.268,92.399,394.439,389.826,0.0
56773.0,STARLINK-6296,PAYLOAD,2024-01-27 06:00:00,15.5718494,0.0003615,69.9992,95.9681,271.9639,121.0159,-0.014046,-0.0093005,0.0,0 STARLINK-6296,1 56773U 23078G   24027.25001157 -.00930050  00000-0 -14046-1 0  9999,2 56773  69.9992  95.9681 0003615 271.9639 121.0159 15.57184940 38121,6773.946,92.475,398.259,393.362,0.0
56773.0,STARLINK-6296,PAYLOAD,2024-01-27 14:00:01,15.56508206,0.0003415,69.9998,95.0513,274.1284,186.5056,-0.013941,-0.00902597,0.0,0 STARLINK-6296,1 56773U 23078G   24027.58334491 -.00902597  00000-0 -13941-1 0  9993,2 56773  69.9998  95.0513 0003415 274.1284 186.5056 15.56508206  5705,6775.909,92.515,400.088,395.46,0.0
56773.0,STARLINK-6296,PAYLOAD,2024-01-27 22:00:00,15.55857373,0.0003287,69.9988,94.1312,274.701,252.7902,-0.014513,-0.00915802,0.0,0 STARLINK-6296,1 56773U 23078G   24027.91667824 -.00915802  00000-0 -14513-1 0  9998,2 56773  69.9988  94.1312 0003287 274.7010 252.7902 15.55857373  5764,6777.798,92.553,401.891,397.436,0.0
56773.0,STARLINK-6296,PAYLOAD,2024-01-28 14:00:01,15.54539582,0.0003516,69.9984,92.2969,277.6804,21.2441,-0.014617,-0.00881841,0.0,0 STARLINK-6296,1 56773U 23078G   24028.58335648 -.00881841  00000-0 -14617-1 0  9998,2 56773  69.9984  92.2969 0003516 277.6804  21.2441 15.54539582 38339,6781.628,92.632,405.878,401.109,0.0
56773.0,STARLINK-6296,PAYLOAD,2024-01-28 22:00:00,15.53895075,0.0003529,69.9983,91.3811,274.5873,88.7824,-0.01546,-0.00908331,0.0,0 STARLINK-6296,1 56773U 23078G   24028.91667824 -.00908331  00000-0 -15460-1 0  9990,2 56773  69.9983  91.3811 0003529 274.5873  88.7824 15.53895075  5912,6783.503,92.67,407.762,402.975,0.0
56773.0,STARLINK-6296,PAYLOAD,2024-01-29 22:00:01,15.51883477,0.0003285,69.9982,88.6396,275.7031,276.5799,-0.01422,-0.00786838,0.0,0 STARLINK-6296,1 56773U 23078G   24029.91668981 -.00786838  00000-0 -14220-1 0  9995,2 56773  69.9982  88.6396 0003285 275.7031 276.5799 15.51883477  6028,6789.364,92.79,413.459,408.999,0.0
56773.0,STARLINK-6296,PAYLOAD,2024-01-30 06:00:00,15.51248938,0.000318,69.9985,87.7277,273.0433,340.531,-0.0006673,-0.00039202,0.0,0 STARLINK-6296,1 56773U 23078G   24030.25001157 -.00039202  00000-0 -66730-3 0  9991,2 56773  69.9985  87.7277 0003180 273.0433 340.5310 15.51248938 38595,6791.215,92.828,415.24,410.921,0.0
56773.0,STARLINK-6296,PAYLOAD,2024-01-30 14:00:01,15.51211574,0.0003173,69.9985,86.8161,279.6075,34.8936,0.00067891,0.00039896,0.0,0 STARLINK-6296,1 56773U 23078G   24030.58334491  .00039896  00000-0  67891-3 0  9993,2 56773  69.9985  86.8161 0003173 279.6075  34.8936 15.51211574  6030,6791.325,92.831,415.344,411.035,0.0
56773.0,STARLINK-6296,PAYLOAD,2024-01-30 22:00:00,15.51219682,0.0003088,69.9988,85.9048,273.2543,102.1709,-0.00046712,-0.00027503,0.0,0 STARLINK-6296,1 56773U 23078G   24030.91667824 -.00027503  00000-0 -46712-3 0  9992,2 56773  69.9988  85.9048 0003088 273.2543 102.1709 15.51219682 38694,6791.301,92.83,415.263,411.069,0.0
56773.0,STARLINK-6296,PAYLOAD,2024-01-31 00:00:02,15.51254116,0.0003,69.9987,85.6771,271.7473,208.9625,-0.002407,-0.00139238,0.0,0 STARLINK-6296,1 56773U 23078G   24031.00002315 -.00139238  00000-0 -24070-2 0  9992,2 56773  69.9987  85.6771 0003000 271.7473 208.9625 15.51254116  5880,6791.2,92.828,415.103,411.028,0.0
56773.0,STARLINK-6296,PAYLOAD,2024-01-31 06:00:02,15.51387622,0.000318,69.9991,84.9934,273.776,162.5907,-0.017165,-0.00919674,0.0,0 STARLINK-6296,1 56773U 23078G   24031.25002315 -.00919674  00000-0 -17165-1 0  9995,2 56773  69.9991  84.9934 0003180 273.7760 162.5907 15.51387622 38746,6790.811,92.82,414.835,410.516,0.0
56773.0,STARLINK-6296,PAYLOAD,2024-01-31 14:00:01,15.50705531,0.0003228,69.9991,84.0824,278.6196,218.4555,-0.016583,-0.00871627,0.0,0 STARLINK-6296,1 56773U 23078G   24031.58335648 -.00871627  00000-0 -16583-1 0  9997,2 56773  69.9991  84.0824 0003228 278.6196 218.4555 15.50705531  5976,6792.802,92.861,416.86,412.474,0.0
56773.0,STARLINK-6296,PAYLOAD,2024-01-31 22:00:00,15.50045435,0.0003297,69.9993,83.1719,272.4602,284.4727,-0.017037,-0.00874439,0.0,0 STARLINK-6296,1 56773U 23078G   24031.91667824 -.00874439  00000-0 -17037-1 0  9997,2 56773  69.9993  83.1719 0003297 272.4602 284.4727 15.50045435  6033,6794.73,92.901,418.836,414.355,0.0
56773.0,STARLINK-6296,PAYLOAD,2024-02-01 14:00:01,15.48748656,0.0003593,69.9996,81.3542,275.7908,38.6207,-0.017835,-0.00874463,0.0,0 STARLINK-6296,1 56773U 23078G   24032.58334491 -.00874463  00000-0 -17835-1 0  9995,2 56773  69.9996  81.3542 0003593 275.7908  38.6207 15.48748656 38954,6798.523,92.978,422.83,417.945,0.0
56773.0,STARLINK-6296,PAYLOAD,2024-02-01 22:00:00,15.48083245,0.0003483,69.9996,80.4465,271.5714,100.4158,-0.018069,-0.00866226,0.0,0 STARLINK-6296,1 56773U 23078G   24032.91667824 -.00866226  00000-0 -18069-1 0  9999,2 56773  69.9996  80.4465 0003483 271.5714 100.4158 15.48083245  6061,6800.471,93.018,424.704,419.967,0.0
56773.0,STARLINK-6296,PAYLOAD,2024-02-02 06:00:02,15.47489758,0.0003514,69.9997,79.5399,273.1182,155.6964,-0.020355,-0.00960971,0.0,0 STARLINK-6296,1 56773U 23078G   24033.25002315 -.00960971  00000-0 -20355-1 0  9998,2 56773  69.9997  79.5399 0003514 273.1182 155.6964 15.47489758 39059,6802.209,93.054,426.465,421.684,0.0
56773.0,STARLINK-6296,PAYLOAD,2024-02-02 14:00:01,15.46795102,0.0003393,69.9996,78.6341,278.7244,206.0447,-0.019179,-0.0087791,0.0,0 STARLINK-6296,1 56773U 23078G   24033.58334491 -.00877910  00000-0 -19179-1 0  9999,2 56773  69.9996  78.6341 0003393 278.7244 206.0447 15.46795102  5984,6804.246,93.096,428.419,423.802,0.0
56773.0,STARLINK-6296,PAYLOAD,2024-02-02 22:00:00,15.46125017,0.0003248,69.9998,77.7294,272.4718,267.5274,-0.019228,-0.00861484,0.0,0 STARLINK-6296,1 56773U 23078G   24033.91667824 -.00861484  00000-0 -19228-1 0  9999,2 56773  69.9998  77.7294 0003248 272.4718 267.5274 15.46125017 39157,6806.211,93.136,430.287,425.866,0.0
56773.0,STARLINK-6296,PAYLOAD,2024-02-03 14:00:01,15.44844292,0.0003459,69.9996,75.9225,276.8346,11.2504,-0.020749,-0.00899194,0.0,0 STARLINK-6296,1 56773U 23078G   24034.58334491 -.00899194  00000-0 -20749-1 0  9993,2 56773  69.9996  75.9225 0003459 276.8346  11.2504 15.44844292 39261,6809.973,93.213,434.193,429.482,0.0
56773.0,STARLINK-6296,PAYLOAD,2024-02-03 22:00:00,15.44167404,0.000343,69.9998,75.0203,271.9935,68.9772,-0.020487,-0.00869929,0.0,0 STARLINK-6296,1 56773U 23078G   24034.91667824 -.00869929  00000-0 -20487-1 0  9991,2 56773  69.9998  75.0203 0003430 271.9935  68.9772 15.44167404  6037,6811.963,93.254,436.164,431.491,0.0
56773.0,STARLINK-6296,PAYLOAD,2024-02-04 06:00:02,15.4357008,0.000344,70.0002,74.1191,274.1067,119.0009,-0.023041,-0.0095147,0.0,0 STARLINK-6296,1 56773U 23078G   24035.25002315 -.00951470  00000-0 -23041-1 0  9999,2 56773  70.0002  74.1191 0003440 274.1067 119.0009 15.43570080 39364,6813.72,93.29,437.929,433.241,0.0
56773.0,STARLINK-6296,PAYLOAD,2024-02-04 14:00:01,15.42885027,0.0003441,69.9998,73.2186,280.1056,164.2594,-0.022111,-0.00896733,0.0,0 STARLINK-6296,1 56773U 23078G   24035.58334491 -.00896733  00000-0 -22111-1 0  9995,2 56773  69.9998  73.2186 0003441 280.1056 164.2594 15.42885027  5975,6815.737,93.332,439.947,435.256,0.0
56773.0,STARLINK-6296,PAYLOAD,2024-02-04 22:00:00,15.42210164,0.0003309,69.9998,72.3191,273.0725,221.8288,-0.021814,-0.0086718,0.0,0 STARLINK-6296,1 56773U 23078G   24035.91667824 -.00867180  00000-0 -21814-1 0  9994,2 56773  69.9998  72.3191 0003309 273.0725 221.8288 15.42210164 39463,6817.725,93.372,441.846,437.334,0.0
56773.0,STARLINK-6296,PAYLOAD,2024-02-05 00:00:00,15.42051737,0.0003277,69.9997,72.0944,269.729,327.6773,-0.021913,-0.00866541,0.0,0 STARLINK-6296,1 56773U 23078G   24036.00001157 -.00866541  00000-0 -21913-1 0  9996,2 56773  69.9997  72.0944 0003277 269.7290 327.6773 15.42051737  6049,6818.192,93.382,442.291,437.822,0.0
56773.0,STARLINK-6296,PAYLOAD,2024-02-05 14:00:01,15.4093242,0.0003268,69.9997,70.5226,276.9682,316.6334,-0.023843,-0.00904985,0.0,0 STARLINK-6296,1 56773U 23078G   24036.58334491 -.00904985  00000-0 -23843-1 0  9998,2 56773  69.9997  70.5226 0003268 276.9682 316.6334 15.40932420 39570,6821.493,93.45,445.587,441.129,0.0
56773.0,STARLINK-6296,PAYLOAD,2024-02-05 22:00:00,15.4025245,0.0003317,69.9998,69.6258,270.3027,11.4897,-0.023239,-0.00865577,0.0,0 STARLINK-6296,1 56773U 23078G   24036.91667824 -.00865577  00000-0 -23239-1 0  9996,2 56773  69.9998  69.6258 0003317 270.3027  11.4897 15.40252450  6027,6823.501,93.491,447.629,443.102,0.0
56773.0,STARLINK-6296,PAYLOAD,2024-02-06 06:00:00,15.39652038,0.0003417,69.9998,68.7298,272.4565,56.7166,-0.026065,-0.00944708,0.0,0 STARLINK-6296,1 56773U 23078G   24037.25001157 -.00944708  00000-0 -26065-1 0  9999,2 56773  69.9998  68.7298 0003417 272.4565  56.7166 15.39652038 39674,6825.274,93.528,449.472,444.807,0.0
